[{"OBJECT_NAME":"ONEWEB-0053","OBJECT_ID":"2020-008AC","EPOCH":"2026-03-09T22:27:36.318528","MEAN_MOTION":13.1037607,"ECCENTRICITY":0.00013968,"INCLINATION":87.8774,"RA_OF_ASC_NODE":56.0475,"ARG_OF_PERICENTER":76.0256,"MEAN_ANOMALY":284.1027,"EPHEMERIS_TYPE":0,"CLASSIFICATION_TYPE":"U","NORAD_CAT_ID":45157,"ELEMENT_SET_NO":999,"REV_AT_EPOCH":29491,"BSTAR":0.0010670412,"MEAN_MOTION_DOT":3.85e-6,"MEAN_MOTION_DDOT":0},{"OBJECT_NAME":"DELTA 1 DEB","OBJECT_ID":"1975-052T","EPOCH":"2026-03-09T08:00:48.699072","MEAN_MOTION":13.24842524,"ECCENTRICITY":0.00998989,"INCLINATION":99.8162,"RA_OF_ASC_NODE":7.833,"ARG_OF_PERICENTER":161.9957,"MEAN_ANOMALY":329.5879,"EPHEMERIS_TYPE":0,"CLASSIFICATION_TYPE":"U","NORAD_CAT_ID":21282,"ELEMENT_SET_NO":999,"REV_AT_EPOCH":68464,"BSTAR":0.00012666868,"MEAN_MOTION_DOT":1.5e-7,"MEAN_MOTION_DDOT":0}]
